     3.04           N: GNSS NAV DATA    R: GLONASS          RINEX VERSION / TYPE
BNC 2.13.0          BKG Frankfurt       20210314 041155 UTC PGM / RUN BY / DATE
Concatenated RINEX files (11)                               COMMENT
                                                            END OF HEADER
R03 2021 03 14 00 15 00 3.236718475819e-05 0.000000000000e+00 0.000000000000e+00
    -1.277514794922e+04-1.344339370728e+00-1.862645149231e-09 0.000000000000e+00
     1.772135205078e+04 1.199658393860e+00-1.862645149231e-09 5.000000000000e+00
     1.316942578125e+04-2.932999610901e+00-1.862645149231e-09 0.000000000000e+00
R12 2021 03 14 00 15 00 2.123443409801e-04 3.637978807092e-12 0.000000000000e+00
    -1.130056835938e+04-4.560728073120e-01-1.862645149231e-09 0.000000000000e+00
    -9.794649902344e+03-2.791050910950e+00 9.313225746155e-10-1.000000000000e+00
     2.069169921875e+04-1.569350242615e+00-2.793967723846e-09 0.000000000000e+00
R19 2021 03 14 00 15 00-1.356080174446e-04-9.094947017729e-13 0.000000000000e+00
     2.289021826172e+04-9.683704376221e-02 4.656612873077e-09 0.000000000000e+00
     1.114430126953e+04-3.243846893311e-01 0.000000000000e+00 3.000000000000e+00
    -1.615062500000e+03-3.604068756104e+00 0.000000000000e+00 0.000000000000e+00
R04 2021 03 14 00 45 00 7.779430598021e-05 1.818989403546e-12 1.800000000000e+03
    -1.497925781250e+03-1.924167633057e+00 0.000000000000e+00 0.000000000000e+00
     1.510284716797e+04 2.042273521423e+00-9.313225746155e-10 6.000000000000e+00
     2.052904296875e+04-1.645670890808e+00-1.862645149231e-09 0.000000000000e+00
R19 2021 03 14 00 45 00-1.356098800898e-04-9.094947017729e-13 1.800000000000e+03
     2.192911865234e+04-9.754095077515e-01 3.725290298462e-09 0.000000000000e+00
     1.032160742188e+04-5.465373992920e-01-9.313225746155e-10 3.000000000000e+00
    -7.956135742188e+03-3.395816802979e+00 9.313225746155e-10 0.000000000000e+00
R20 2021 03 14 01 15 00-4.517659544945e-05 0.000000000000e+00 3.810000000000e+03
     2.481009619141e+04 8.326301574707e-01 4.656612873077e-09 0.000000000000e+00
     1.467205078125e+03-1.178350448608e-01-9.313225746155e-10 2.000000000000e+00
     5.865832519531e+03-3.493656158447e+00 0.000000000000e+00 0.000000000000e+00
R19 2021 03 14 01 15 00-1.356126740575e-04-9.094947017729e-13 3.630000000000e+03
     1.939970214844e+04-1.819155693054e+00 2.793967723846e-09 0.000000000000e+00
     9.334018066406e+03-5.082006454468e-01-1.862645149231e-09 3.000000000000e+00
    -1.368204833984e+04-2.924993515015e+00 1.862645149231e-09 0.000000000000e+00
R04 2021 03 14 01 15 00 7.779803127050e-05 1.818989403546e-12 3.600000000000e+03
    -4.407236328125e+03-1.298375129700e+00-1.862645149231e-09 0.000000000000e+00
     1.869281347656e+04 1.898910522461e+00-1.862645149231e-09 6.000000000000e+00
     1.681335595703e+04-2.456217765808e+00-1.862645149231e-09 0.000000000000e+00
R13 2021 03 14 01 15 00-5.196314305067e-05 0.000000000000e+00 3.600000000000e+03
    -1.224863525391e+04-1.252600669861e+00-1.862645149231e-09 0.000000000000e+00
    -1.454095703125e+03-2.791796684265e+00 9.313225746155e-10-2.000000000000e+00
     2.230602441406e+04-8.685417175293e-01-2.793967723846e-09 0.000000000000e+00
R04 2021 03 14 01 45 00 7.780082523823e-05 1.818989403546e-12 5.400000000000e+03
    -6.169945800781e+03-6.689043045044e-01-2.793967723846e-09 0.000000000000e+00
     2.176930468750e+04 1.474405288696e+00-9.313225746155e-10 6.000000000000e+00
     1.180034521484e+04-3.077771186829e+00-9.313225746155e-10 0.000000000000e+00
R14 2021 03 14 01 45 00 6.198044866323e-05 0.000000000000e+00 5.400000000000e+03
    -5.530155761719e+03-1.492043495178e+00-9.313225746155e-10 0.000000000000e+00
     1.159650927734e+04-2.620892524719e+00 0.000000000000e+00-7.000000000000e+00
     2.204324755859e+04 1.003754615784e+00-2.793967723846e-09 0.000000000000e+00
R13 2021 03 14 01 45 00-5.196407437325e-05 0.000000000000e+00 5.400000000000e+03
    -1.473244384766e+04-1.471635818481e+00-9.313225746155e-10 0.000000000000e+00
    -6.068905273438e+03-2.300158500671e+00 1.862645149231e-09-2.000000000000e+00
     1.989888574219e+04-1.788619041443e+00-1.862645149231e-09 0.000000000000e+00
R20 2021 03 14 01 45 00-4.517659544945e-05 0.000000000000e+00 5.400000000000e+03
     2.550511035156e+04-7.068538665771e-02 4.656612873077e-09 0.000000000000e+00
     1.087086425781e+03-2.627449035645e-01-1.862645149231e-09 2.000000000000e+00
    -5.678198242188e+02-3.608572959900e+00 0.000000000000e+00 0.000000000000e+00
R05 2021 03 14 02 15 00 6.812345236540e-05 9.094947017729e-13 7.200000000000e+03
     3.406606933594e+03-9.481544494629e-01-9.313225746155e-10 0.000000000000e+00
     1.584188525391e+04 2.526246070862e+00-9.313225746155e-10 1.000000000000e+00
     1.970512255859e+04-1.870234489441e+00-1.862645149231e-09 0.000000000000e+00
R04 2021 03 14 02 15 00 7.780455052853e-05 1.818989403546e-12 7.200000000000e+03
    -6.877770019531e+03-1.428298950195e-01-3.725290298462e-09 0.000000000000e+00
     2.385428417969e+04 8.072891235352e-01 0.000000000000e+00 6.000000000000e+00
     5.876097656250e+03-3.462073326111e+00-9.313225746155e-10 0.000000000000e+00
R04 2021 03 14 02 45 00 7.780734449625e-05 1.818989403546e-12 9.000000000000e+03
    -6.798175292969e+03 1.943941116333e-01-4.656612873077e-09 0.000000000000e+00
     2.457668701172e+04-2.364063262939e-02 0.000000000000e+00 6.000000000000e+00
    -5.022758789063e+02-3.578998565674e+00 0.000000000000e+00 0.000000000000e+00
R05 2021 03 14 02 45 00 6.812438368797e-05 9.094947017729e-13 9.000000000000e+03
     2.180327636719e+03-4.262437820435e-01-2.793967723846e-09 0.000000000000e+00
     2.004676269531e+04 2.099221229553e+00 0.000000000000e+00 1.000000000000e+00
     1.562067480469e+04-2.638661384583e+00-1.862645149231e-09 0.000000000000e+00
R07 2021 03 14 02 45 00-4.254002124071e-05 0.000000000000e+00 1.023000000000e+04
     1.207153027344e+04-6.761522293091e-01 3.725290298462e-09 0.000000000000e+00
    -1.590969482422e+04 2.067781448364e+00-1.862645149231e-09 5.000000000000e+00
     1.593602148438e+04 2.578741073608e+00-9.313225746155e-10 0.000000000000e+00
R09 2021 03 14 02 45 00-1.723133027554e-05 1.818989403546e-12 9.300000000000e+03
     1.982884082031e+04 1.171909332275e+00 0.000000000000e+00 0.000000000000e+00
     1.154573632813e+04 9.932756423950e-01-2.793967723846e-09-2.000000000000e+00
    -1.120314160156e+04 3.088072776794e+00 9.313225746155e-10 0.000000000000e+00
R14 2021 03 14 02 45 00 6.198231130838e-05 0.000000000000e+00 9.000000000000e+03
    -1.237177490234e+04-2.185020446777e+00-9.313225746155e-10 0.000000000000e+00
     2.815342773438e+03-2.096870422363e+00 9.313225746155e-10-7.000000000000e+00
     2.213215625000e+04-9.557571411133e-01-2.793967723846e-09 0.000000000000e+00
R15 2021 03 14 02 45 00 1.049349084496e-04 0.000000000000e+00 9.000000000000e+03
     1.952860839844e+03-1.906825065613e+00-1.862645149231e-09 0.000000000000e+00
     1.550828173828e+04-1.994306564331e+00 0.000000000000e+00 0.000000000000e+00
     2.016983789063e+04 1.719504356384e+00-1.862645149231e-09 0.000000000000e+00
R16 2021 03 14 02 45 00-1.245643943548e-05-9.094947017729e-13 9.000000000000e+03
     1.619983642578e+04-4.606122970581e-01 0.000000000000e+00 0.000000000000e+00
     1.885373388672e+04-5.950231552124e-01-2.793967723846e-09-1.000000000000e+00
     5.381955566406e+03 3.465021133423e+00 0.000000000000e+00 0.000000000000e+00
R21 2021 03 14 02 45 00-1.941937953234e-04-2.728484105319e-12 9.000000000000e+03
     2.306274169922e+04 7.613849639893e-01 3.725290298462e-09 0.000000000000e+00
    -8.952013183594e+03-4.363269805908e-01-2.793967723846e-09 4.000000000000e+00
     6.179585937500e+03-3.476652145386e+00 0.000000000000e+00 0.000000000000e+00
R06 2021 03 14 02 45 00 1.943605020642e-04 0.000000000000e+00 9.000000000000e+03
     1.103974414063e+04-7.436285018921e-01 9.313225746155e-10 0.000000000000e+00
     1.422885253906e+03 3.053194046021e+00-1.862645149231e-09-4.000000000000e+00
     2.294520507813e+04 1.662616729736e-01-1.862645149231e-09 0.000000000000e+00
R22 2021 03 14 02 45 00-1.024911180139e-04-9.094947017729e-13 9.000000000000e+03
     1.098434814453e+04 2.586996078491e+00 3.725290298462e-09 0.000000000000e+00
    -1.190140039063e+04-8.037376403809e-01-1.862645149231e-09-3.000000000000e+00
     1.973352490234e+04-1.914228439331e+00-1.862645149231e-09 0.000000000000e+00
R23 2021 03 14 02 45 00 3.718826919794e-04 1.818989403546e-12 1.044000000000e+04
    -1.248012451172e+04 2.848523139954e+00 0.000000000000e+00 0.000000000000e+00
    -6.587521972656e+03-6.266727447510e-01 9.313225746155e-10 3.000000000000e+00
     2.124147656250e+04 1.479654312134e+00-2.793967723846e-09 0.000000000000e+00
R20 2021 03 14 02 45 00-4.517938941717e-05 0.000000000000e+00 9.390000000000e+03
     2.206718310547e+04-1.760823249817e+00 1.862645149231e-09 0.000000000000e+00
     6.758574218750e+02 1.887073516846e-01-2.793967723846e-09 2.000000000000e+00
    -1.281085644531e+04-3.016095161438e+00 9.313225746155e-10 0.000000000000e+00
R08 2021 03 14 02 45 00-5.790311843157e-05 0.000000000000e+00 9.000000000000e+03
     6.833030273438e+03-1.783676147461e-01 4.656612873077e-09 0.000000000000e+00
    -2.458161621094e+04 2.819156646729e-02-9.313225746155e-10 6.000000000000e+00
     5.922939453125e+02 3.567861557007e+00 0.000000000000e+00 0.000000000000e+00
R09 2021 03 14 03 15 00-1.722760498524e-05 2.728484105319e-12 1.080000000000e+04
     2.150232421875e+04 6.495456695557e-01 0.000000000000e+00 0.000000000000e+00
     1.273021972656e+04 3.391761779785e-01-2.793967723846e-09-2.000000000000e+00
    -5.284472167969e+03 3.445624351501e+00 0.000000000000e+00 0.000000000000e+00
